HST                     
1 20580U 90037B   26068.15977042  .00009063  00000+0  30023-3 0  9999
2 20580  28.4717  43.6133 0001837 120.9992 239.0785 15.29473555773239
STARLINK-35311          
1 66032U 25232AD  26068.81782282  .00017724  00000+0  60910-3 0  9990
2 66032  53.1599 103.4047 0001790  89.3413 270.7793 15.30200109 23455
